{
  "type": "FeatureCollection",
  "features": [
    {
      "type": "Feature",
      "properties": {
        "norad_id": 28054,
        "name": "DMSP 5D-3 F16 (USA 172)",
        "group": "weather",
        "lat": -61.9037181212189,
        "lon": 36.451553267699666,
        "alt_km": 847.2503307273819,
        "timestamp": "2025-12-27T14:26:30.158668+00:00",
        "meta_object_name": "DMSP 5D-3 F16 (USA 172)",
        "meta_object_id": "2003-048A",
        "meta_epoch": "2025-12-27T08:00:07.920864",
        "meta_mean_motion": 14.14429316,
        "meta_eccentricity": 0.00062447,
        "meta_inclination": 99.0037,
        "meta_ra_of_asc_node": 18.9045,
        "meta_arg_of_pericenter": 273.959,
        "meta_mean_anomaly": 97.3189,
        "meta_ephemeris_type": 0,
        "meta_classification_type": "U",
        "meta_norad_cat_id": 28054,
        "meta_element_set_no": 999,
        "meta_rev_at_epoch": 14519,
        "meta_bstar": 9.6194482e-05,
        "meta_mean_motion_dot": 1.39e-06,
        "meta_mean_motion_ddot": 0,
        "tle_line1": "1 28054U 03048A   25361.33342501  .00000139  00000+0  96194-4 0  9997",
        "tle_line2": "2 28054  99.0037  18.9045 0006244 273.9590  97.3189 14.14429316145199"
      },
      "geometry": {
        "type": "Point",
        "coordinates": [
          36.451553267699666,
          -61.9037181212189
        ]
      }
    },
    {
      "type": "Feature",
      "properties": {
        "norad_id": 28912,
        "name": "METEOSAT-9 (MSG-2)",
        "group": "weather",
        "lat": -7.582192643192481,
        "lon": -1.6601798473571172,
        "alt_km": 35503.01081911166,
        "timestamp": "2025-12-27T14:26:30.158720+00:00",
        "meta_object_name": "METEOSAT-9 (MSG-2)",
        "meta_object_id": "2005-049B",
        "meta_epoch": "2025-12-24T18:27:10.310976",
        "meta_mean_motion": 1.00268275,
        "meta_eccentricity": 0.00719695,
        "meta_inclination": 8.9553,
        "meta_ra_of_asc_node": 55.846,
        "meta_arg_of_pericenter": 282.2974,
        "meta_mean_anomaly": 77.0088,
        "meta_ephemeris_type": 0,
        "meta_classification_type": "U",
        "meta_norad_cat_id": 28912,
        "meta_element_set_no": 999,
        "meta_rev_at_epoch": 524,
        "meta_bstar": 0,
        "meta_mean_motion_dot": 1.45e-06,
        "meta_mean_motion_ddot": 0,
        "tle_line1": "1 28912U 05049B   25358.76886934  .00000145  00000+0  00000+0 0  9992",
        "tle_line2": "2 28912   8.9553  55.8460 0071969 282.2974  77.0088  1.00268275  5240"
      },
      "geometry": {
        "type": "Point",
        "coordinates": [
          -1.6601798473571172,
          -7.582192643192481
        ]
      }
    },
    {
      "type": "Feature",
      "properties": {
        "norad_id": 29522,
        "name": "DMSP 5D-3 F17 (USA 191)",
        "group": "weather",
        "lat": -79.0740588170698,
        "lon": 133.85206471570254,
        "alt_km": 848.9361755495383,
        "timestamp": "2025-12-27T14:26:30.158738+00:00",
        "meta_object_name": "DMSP 5D-3 F17 (USA 191)",
        "meta_object_id": "2006-050A",
        "meta_epoch": "2025-12-27T06:24:44.569728",
        "meta_mean_motion": 14.14925902,
        "meta_eccentricity": 0.00100466,
        "meta_inclination": 98.7393,
        "meta_ra_of_asc_node": 6.3537,
        "meta_arg_of_pericenter": 181.8113,
        "meta_mean_anomaly": 178.3025,
        "meta_ephemeris_type": 0,
        "meta_classification_type": "U",
        "meta_norad_cat_id": 29522,
        "meta_element_set_no": 999,
        "meta_rev_at_epoch": 98810,
        "meta_bstar": 0.00012962412,
        "meta_mean_motion_dot": 2.07e-06,
        "meta_mean_motion_ddot": 0,
        "tle_line1": "1 29522U 06050A   25361.26718252  .00000207  00000+0  12962-3 0  9992",
        "tle_line2": "2 29522  98.7393   6.3537 0010046 181.8113 178.3025 14.14925902988108"
      },
      "geometry": {
        "type": "Point",
        "coordinates": [
          133.85206471570254,
          -79.0740588170698
        ]
      }
    },
    {
      "type": "Feature",
      "properties": {
        "norad_id": 32958,
        "name": "FENGYUN 3A",
        "group": "weather",
        "lat": -42.137596624687376,
        "lon": 112.88040935306374,
        "alt_km": 829.3044981372977,
        "timestamp": "2025-12-27T14:26:30.158752+00:00",
        "meta_object_name": "FENGYUN 3A",
        "meta_object_id": "2008-026A",
        "meta_epoch": "2025-12-27T06:37:43.272192",
        "meta_mean_motion": 14.19519236,
        "meta_eccentricity": 0.00076152,
        "meta_inclination": 98.6715,
        "meta_ra_of_asc_node": 300.4982,
        "meta_arg_of_pericenter": 263.0769,
        "meta_mean_anomaly": 96.9541,
        "meta_ephemeris_type": 0,
        "meta_classification_type": "U",
        "meta_norad_cat_id": 32958,
        "meta_element_set_no": 999,
        "meta_rev_at_epoch": 91101,
        "meta_bstar": 8.6501894e-05,
        "meta_mean_motion_dot": 1.39e-06,
        "meta_mean_motion_ddot": 0,
        "tle_line1": "1 32958U 08026A   25361.27619528  .00000139  00000+0  86502-4 0  9997",
        "tle_line2": "2 32958  98.6715 300.4982 0007615 263.0769  96.9541 14.19519236911010"
      },
      "geometry": {
        "type": "Point",
        "coordinates": [
          112.88040935306374,
          -42.137596624687376
        ]
      }
    },
    {
      "type": "Feature",
      "properties": {
        "norad_id": 35491,
        "name": "GOES 14",
        "group": "weather",
        "lat": 1.1742082080354468,
        "lon": -166.17083259069597,
        "alt_km": 35834.728462165964,
        "timestamp": "2025-12-27T14:26:30.158767+00:00",
        "meta_object_name": "GOES 14",
        "meta_object_id": "2009-033A",
        "meta_epoch": "2025-12-27T05:35:17.915136",
        "meta_mean_motion": 1.00097099,
        "meta_eccentricity": 7.994e-05,
        "meta_inclination": 1.2395,
        "meta_ra_of_asc_node": 85.2517,
        "meta_arg_of_pericenter": 194.7564,
        "meta_mean_anomaly": 140.8993,
        "meta_ephemeris_type": 0,
        "meta_classification_type": "U",
        "meta_norad_cat_id": 35491,
        "meta_element_set_no": 999,
        "meta_rev_at_epoch": 486,
        "meta_bstar": 0,
        "meta_mean_motion_dot": 4.6e-07,
        "meta_mean_motion_ddot": 0,
        "tle_line1": "1 35491U 09033A   25361.23284624  .00000046  00000+0  00000+0 0  9993",
        "tle_line2": "2 35491   1.2395  85.2517 0000799 194.7564 140.8993  1.00097099  4860"
      },
      "geometry": {
        "type": "Point",
        "coordinates": [
          -166.17083259069597,
          1.1742082080354468
        ]
      }
    },
    {
      "type": "Feature",
      "properties": {
        "norad_id": 35951,
        "name": "DMSP 5D-3 F18 (USA 210)",
        "group": "weather",
        "lat": 55.83724014618199,
        "lon": 171.2560311257669,
        "alt_km": 839.1047126798176,
        "timestamp": "2025-12-27T14:26:30.158781+00:00",
        "meta_object_name": "DMSP 5D-3 F18 (USA 210)",
        "meta_object_id": "2009-057A",
        "meta_epoch": "2025-12-27T05:22:34.674816",
        "meta_mean_motion": 14.14778934,
        "meta_eccentricity": 0.0011614,
        "meta_inclination": 98.8852,
        "meta_ra_of_asc_node": 337.5535,
        "meta_arg_of_pericenter": 24.3635,
        "meta_mean_anomaly": 335.8085,
        "meta_ephemeris_type": 0,
        "meta_classification_type": "U",
        "meta_norad_cat_id": 35951,
        "meta_element_set_no": 999,
        "meta_rev_at_epoch": 83527,
        "meta_bstar": 0.00019118949,
        "meta_mean_motion_dot": 3.24e-06,
        "meta_mean_motion_ddot": 0,
        "tle_line1": "1 35951U 09057A   25361.22401244  .00000324  00000+0  19119-3 0  9992",
        "tle_line2": "2 35951  98.8852 337.5535 0011614  24.3635 335.8085 14.14778934835277"
      },
      "geometry": {
        "type": "Point",
        "coordinates": [
          171.2560311257669,
          55.83724014618199
        ]
      }
    },
    {
      "type": "Feature",
      "properties": {
        "norad_id": 36411,
        "name": "EWS-G2 (GOES 15)",
        "group": "weather",
        "lat": -0.8034832561709889,
        "lon": 14.358337392916269,
        "alt_km": 35793.646909128816,
        "timestamp": "2025-12-27T14:26:30.158794+00:00",
        "meta_object_name": "EWS-G2 (GOES 15)",
        "meta_object_id": "2010-008A",
        "meta_epoch": "2025-12-27T04:44:00.328992",
        "meta_mean_motion": 1.00270991,
        "meta_eccentricity": 0.00056793,
        "meta_inclination": 0.8475,
        "meta_ra_of_asc_node": 86.0592,
        "meta_arg_of_pericenter": 180.6109,
        "meta_mean_anomaly": 321.6086,
        "meta_ephemeris_type": 0,
        "meta_classification_type": "U",
        "meta_norad_cat_id": 36411,
        "meta_element_set_no": 999,
        "meta_rev_at_epoch": 5791,
        "meta_bstar": 0,
        "meta_mean_motion_dot": 6e-07,
        "meta_mean_motion_ddot": 0,
        "tle_line1": "1 36411U 10008A   25361.19722603  .00000060  00000+0  00000+0 0  9995",
        "tle_line2": "2 36411   0.8475  86.0592 0005679 180.6109 321.6086  1.00270991 57910"
      },
      "geometry": {
        "type": "Point",
        "coordinates": [
          14.358337392916269,
          -0.8034832561709889
        ]
      }
    }
  ]
}